[Satellite]
VERSION=1.1
NAME=UNISAT-6
NICKNAME=UNISAT-6
TLE1=1 40012U 14033C   17186.19685987  .00000145  00000-0  29504-4 0  9998
TLE2=2 40012  97.8550  69.3633 0057343 235.5156 124.0628 14.73626566163595
